IRIDIUM 144             
1 43249U 18030A   24101.91596737  .00000117  00000+0  34822-4 0  9990
2 43249  86.3922 263.5772 0002139  90.5031 269.6410 14.34218014315868
IRIDIUM 149             
1 43250U 18030B   24101.92230878  .00000122  00000+0  36658-4 0  9999
2 43250  86.3921 263.5503 0001972  90.9012 269.2410 14.34218148315884
IRIDIUM 157             
1 43251U 18030C   24101.87156542  .00000115  00000+0  34060-4 0  9996
2 43251  86.3923 263.6070 0002127 100.1682 259.9754 14.34218475315854
IRIDIUM 140             
1 43252U 18030D   24101.96036333  .00000118  00000+0  35197-4 0  9997
2 43252  86.3923 263.5845 0002280  85.1272 275.0184 14.34218254315920
IRIDIUM 145             
1 43253U 18030E   24101.87791005  .00000057  00000+0  13256-4 0  9996
2 43253  86.3922 263.5929 0002037  84.7927 275.3501 14.34218187315847
IRIDIUM 146             
1 43254U 18030F   24101.92864978  .00000144  00000+0  44493-4 0  9997
2 43254  86.3921 263.5866 0002004  85.2306 274.9119 14.34218643315867
IRIDIUM 148             
1 43255U 18030G   24101.89693339  .00000117  00000+0  34588-4 0  9999
2 43255  86.3923 263.6310 0001786  93.1741 266.9659 14.34219449315890
IRIDIUM 142             
1 43256U 18030H   24101.93499106  .00000097  00000+0  27627-4 0  9994
2 43256  86.3920 263.5330 0001961  88.0074 272.1347 14.34218612315867
